TRITON-1                
1 39427U 13066M   26195.64513508  .00001066  00000+0  13246-3 0  9997
2 39427  97.8229 104.8254 0090576 143.8815 216.8563 14.81793911678157
GOMX-1                  
1 39430U 13066Q   26195.49033501  .00000813  00000+0  12859-3 0  9992
2 39430  97.6469  34.2302 0128316 350.4797   9.3979 14.69542113673922
CUBEBUG-2 (LO-74)       
1 39440U 13066AA  26195.39146611  .00001973  00000+0  18552-3 0  9993
2 39440  97.8911 144.4904 0055785 298.0804  61.4782 14.93963525681059
NEE-02 KRYSAOR          
1 39441U 13066AB  26195.33301821  .00001214  00000+0  13773-3 0  9992
2 39441  97.8897 134.3568 0065489 342.1297  17.7616 14.86736951680238
FUNCUBE-1 (AO-73)       
1 39444U 13066AE  26195.49735473  .00003290  00000+0  20437-3 0  9997
2 39444  97.8287 167.5216 0038029 109.9036 250.6296 15.09812271683783
UWE-3                   
1 39446U 13066AG  26195.41799009  .00001896  00000+0  16564-3 0  9992
2 39446  97.8705 151.6809 0047490 227.1676 132.5551 14.97195599681656
SMDC ONE 2.4            
1 39469U 13072H   26195.59248451  .00009051  00000+0  33761-3 0  9992
2 39469 120.4902  97.9389 0147990  47.8814 313.4734 15.18800340121995
COSMOS 2488 (RODNIK-S 7)
1 39483U 13076A   26195.56737411 -.00000144  00000+0 -11120-2 0  9998
2 39483  82.4848 151.6376 0020611  38.8551 321.4006 12.42905815569296
COSMOS 2489 (RODNIK-S 8)
1 39484U 13076B   26195.62364934 -.00000044  00000+0 -39264-3 0  9991
2 39484  82.4884 152.9902 0022427  38.4427 321.8246 12.42880017569354
COSMOS 2490 (RODNIK-S 9)
1 39485U 13076C   26195.59557532 -.00000065  00000+0 -54474-3 0  9999
2 39485  82.4832 151.0632 0022822  53.3959 306.9216 12.42878928569284
KAZEOSAT 1              
1 39731U 14024A   26195.63706475  .00000360  00000+0  12282-3 0  9991
2 39731  98.3204 267.3999 0001251  81.4942 278.6390 14.42038107642516
COSMOS 2496 (RODNIK-S *)
1 39761U 14028A   26195.63355365  .00000051  00000+0  29956-3 0  9999
2 39761  82.4459  91.5419 0020862  22.1332 338.0643 12.42879174550923
COSMOS 2497 (RODNIK-S *)
1 39762U 14028B   26195.60848463  .00000143  00000+0  95973-3 0  9997
2 39762  82.4508  93.2579 0021361  17.2119 342.9681 12.42895494550927
COSMOS 2498 (RODNIK-S *)
1 39763U 14028C   26195.58419188  .00000018  00000+0  58493-4 0  9991
2 39763  82.4468  91.7483 0022072  16.8195 343.3612 12.42980786550950
HODOYOSHI-4             
1 40011U 14033B   26195.60197435  .00001204  00000+0  13572-3 0  9992
2 40011  97.5452  19.1026 0022633 211.5594 148.4267 14.88189368652889
UNISAT-6                
1 40012U 14033C   26195.42923565  .00001149  00000+0  12803-3 0  9998
2 40012  97.7907 347.6681 0044247 340.3441  19.6069 14.88364829650211
DEIMOS-2                
1 40013U 14033D   26195.64769162  .00000570  00000+0  58890-4 0  9998
2 40013  97.5796  69.1680 0000873 104.6744 255.4573 14.93792983641824
BUGSAT-1 (TITA)         
1 40014U 14033E   26195.56489249  .00001912  00000+0  10286-3 0  9992
2 40014  98.0441 289.7206 0029183  88.0848 272.3725 15.15876010659989
SAUDISAT 4              
1 40016U 14033G   26195.37319920  .00000233  00000+0  37605-4 0  9991
2 40016  97.7616 340.5730 0044332 346.7652  13.2394 14.79575141650096
APRIZESAT 9             
1 40018U 14033J   26195.35696210  .00000324  00000+0  54934-4 0  9996
2 40018  97.9092 327.8963 0067422 112.5755 248.2606 14.74251998647562
BRITE-CA1 (TORONTO)     
1 40020U 14033L   26195.35124036  .00000526  00000+0  86646-4 0  9990
2 40020  97.9770 323.7836 0078374 188.9650 171.0163 14.72721565646213
