OBJECT_NAME,OBJECT_ID,EPOCH,MEAN_MOTION,ECCENTRICITY,INCLINATION,RA_OF_ASC_NODE,ARG_OF_PERICENTER,MEAN_ANOMALY,EPHEMERIS_TYPE,CLASSIFICATION_TYPE,NORAD_CAT_ID,ELEMENT_SET_NO,REV_AT_EPOCH,BSTAR,MEAN_MOTION_DOT,MEAN_MOTION_DDOT
TRITON-1,2013-066M,2026-07-14T15:28:59.670912,14.81793911,.00905761,97.8229,104.8254,143.8815,216.8563,0,U,39427,999,67815,.13246145E-3,.1066E-4,0
GOMX-1,2013-066Q,2026-07-14T11:46:04.944864,14.69542113,.01283163,97.6469,34.2302,350.4797,9.3979,0,U,39430,999,67392,.12859376E-3,.813E-5,0
CUBEBUG-2 (LO-74),2013-066AA,2026-07-14T09:23:42.671904,14.93963525,.00557858,97.8911,144.4904,298.0804,61.4782,0,U,39440,999,68105,.18552025E-3,.1973E-4,0
NEE-02 KRYSAOR,2013-066AB,2026-07-14T07:59:32.773344,14.86736951,.00654894,97.8897,134.3568,342.1297,17.7616,0,U,39441,999,68023,.13773417E-3,.1214E-4,0
FUNCUBE-1 (AO-73),2013-066AE,2026-07-14T11:56:11.448672,15.09812271,.00380291,97.8287,167.5216,109.9036,250.6296,0,U,39444,999,68378,.20437186E-3,.329E-4,0
UWE-3,2013-066AG,2026-07-14T10:01:54.343776,14.97195599,.00474906,97.8705,151.6809,227.1676,132.5551,0,U,39446,999,68165,.16564366E-3,.1896E-4,0
SMDC ONE 2.4,2013-072H,2026-07-14T14:13:10.661664,15.18800340,.01479906,120.4902,97.9389,47.8814,313.4734,0,U,39469,999,12199,.33760975E-3,.9051E-4,0
COSMOS 2488 (RODNIK-S 7),2013-076A,2026-07-14T13:37:01.123104,12.42905815,.00206112,82.4848,151.6376,38.8551,321.4006,0,U,39483,999,56929,-.11119861E-2,-.144E-5,0
COSMOS 2489 (RODNIK-S 8),2013-076B,2026-07-14T14:58:03.302976,12.42880017,.0022427,82.4884,152.9902,38.4427,321.8246,0,U,39484,999,56935,-.39263618E-3,-.44E-6,0
COSMOS 2490 (RODNIK-S 9),2013-076C,2026-07-14T14:17:37.707648,12.42878928,.00228222,82.4832,151.0632,53.3959,306.9216,0,U,39485,999,56928,-.54474169E-3,-.65E-6,0
KAZEOSAT 1,2014-024A,2026-07-14T15:17:22.394400,14.42038107,.00012515,98.3204,267.3999,81.4942,278.6390,0,U,39731,999,64251,.12281877E-3,.36E-5,0
COSMOS 2496 (RODNIK-S 10),2014-028A,2026-07-14T15:12:19.035360,12.42879174,.00208623,82.4459,91.5419,22.1332,338.0643,0,U,39761,999,55092,.29955978E-3,.51E-6,0
COSMOS 2497 (RODNIK-S 11),2014-028B,2026-07-14T14:36:13.072032,12.42895494,.00213612,82.4508,93.2579,17.2119,342.9681,0,U,39762,999,55092,.95972542E-3,.143E-5,0
COSMOS 2498 (RODNIK-S 12),2014-028C,2026-07-14T14:01:14.178432,12.42980786,.00220721,82.4468,91.7483,16.8195,343.3612,0,U,39763,999,55095,.58492686E-4,.18E-6,0
HODOYOSHI-4,2014-033B,2026-07-14T14:26:50.583840,14.88189368,.0022633,97.5452,19.1026,211.5594,148.4267,0,U,40011,999,65288,.13572157E-3,.1204E-4,0
UNISAT-6,2014-033C,2026-07-14T10:18:05.960160,14.88364829,.00442475,97.7907,347.6681,340.3441,19.6069,0,U,40012,999,65021,.12802781E-3,.1149E-4,0
DEIMOS-2,2014-033D,2026-07-14T15:32:40.555968,14.93792983,.00008736,97.5796,69.1680,104.6744,255.4573,0,U,40013,999,64182,.5888976E-4,.57E-5,0
BUGSAT-1 (TITA),2014-033E,2026-07-14T13:33:26.711136,15.15876010,.00291838,98.0441,289.7206,88.0848,272.3725,0,U,40014,999,65998,.10285893E-3,.1912E-4,0
SAUDISAT 4,2014-033G,2026-07-14T08:57:24.410880,14.79575141,.00443323,97.7616,340.5730,346.7652,13.2394,0,U,40016,999,65009,.3760536E-4,.233E-5,0
APRIZESAT 9,2014-033J,2026-07-14T08:34:01.525440,14.74251998,.0067422,97.9092,327.8963,112.5755,248.2606,0,U,40018,999,64756,.54934138E-4,.324E-5,0
BRITE-CA1 (TORONTO),2014-033L,2026-07-14T08:25:47.167104,14.72721565,.00783747,97.9770,323.7836,188.9650,171.0163,0,U,40020,999,64621,.86645796E-4,.526E-5,0
